0 THORAD AGENA D DEB
1 04154U 69082W   13282.80434980 -.00000118  00000-0 -39230-4 0  5787
2 04154 070.0679 114.3742 0046603 157.7231 297.0476 14.05557265998733
0 THORAD AGENA D DEB
1 04154U 69082W   13283.94539751 -.00000154  00000-0 -60961-4 0  5791
2 04154 070.0678 111.9036 0046550 156.1451 310.8078 14.05557643998898
0 THORAD AGENA D DEB
1 04154U 69082W   13285.49401872 -.00000171  00000-0 -71251-4 0  5800
2 04154 070.0677 108.5506 0046492 154.0065 226.9127 14.05557540999118
0 THORAD AGENA D DEB
1 04154U 69082W   13286.49719197 -.00000130  00000-0 -46191-4 0  5814
2 04154 070.0677 106.3784 0046423 152.6171 263.0279 14.05557022999258
0 THORAD AGENA D DEB
1 04154U 69082W   13287.71152843 -.00000049  00000-0  31152-5 0  5820
2 04154 070.0679 103.7490 0046367 150.9539 287.6227 14.05556135999429
0 THORAD AGENA D DEB
1 04154U 69082W   13288.85614618  .00000047  00000-0  61304-4 0  5838
2 04154 070.0681 101.2706 0046257 149.4104 319.4115 14.05555342999580
0 THORAD AGENA D DEB
1 04154U 69082W   13289.92420539  .00000131  00000-0  11233-3 0  5844
2 04154 070.0683 098.9580 0046192 147.9146 323.8662 14.05554850999737
0 THORAD AGENA D DEB
1 04154U 69082W   13291.13559321  .00000204  00000-0  15712-3 0  5850
2 04154 070.0686 096.3353 0046125 146.3016 333.4877 14.05554765999904
0 THORAD AGENA D DEB
1 04154U 69082W   13292.47710816  .00000221  00000-0  16722-3 0  5868
2 04154 070.0689 093.4309 0046068 144.3838 281.6795 14.05555201    94
0 THORAD AGENA D DEB
1 04154U 69082W   13293.83730368  .00000175  00000-0  13927-3 0  5876
2 04154 070.0692 090.4861 0045975 142.5140 324.3223 14.05556294   285
0 THORAD AGENA D DEB
1 04154U 69082W   13294.84408390  .00000101  00000-0  94063-4 0  5886
2 04154 070.0694 088.3064 0045932 141.0858 018.7143 14.05557546   423
0 THORAD AGENA D DEB
1 04154U 69082W   13296.11504813 -.00000027  00000-0  16266-4 0  5893
2 04154 070.0696 085.5548 0045871 139.2946 329.8911 14.05559062   604
